NORAD_CAT_ID,OBJECT_NAME,OBJECT_TYPE,EPOCH,MEAN_MOTION,ECCENTRICITY,INCLINATION,RA_OF_ASC_NODE,ARG_OF_PERICENTER,MEAN_ANOMALY,BSTAR,MEAN_MOTION_DOT,MEAN_MOTION_DDOT,TLE_LINE0,TLE_LINE1,TLE_LINE2,SEMIMAJOR_AXIS,PERIOD,APOGEE,PERIGEE,DECAYED
53140.0,STARLINK-4170,PAYLOAD,2023-04-19 15:47:30,15.08845201,0.0001385,53.2166,230.3421,66.1532,293.9605,0.0019282,0.00030537,0.0,0 STARLINK-4170,1 53140U 22083J   23109.65799327  .00030537  00000-0  19282-2 0  9993,2 53140  53.2166 230.3421 0001385  66.1532 293.9605 15.08845201 42579,6917.864,95.437,540.688,538.771,0.0
53140.0,STARLINK-4170,PAYLOAD,2023-04-20 01:19:49,15.08845709,0.0001299,53.2172,228.5579,70.6569,289.4563,0.0016351,0.00025834,0.0,0 STARLINK-4170,1 53140U 22083J   23110.05543711  .00025834  00000-0  16351-2 0  9991,2 53140  53.2172 228.5579 0001299  70.6569 289.4563 15.08845709 42636,6917.863,95.437,540.627,538.829,0.0
53140.0,STARLINK-4170,PAYLOAD,2023-04-20 07:41:22,15.08821812,0.0001108,53.2167,227.3681,86.079,274.0328,0.00046337,7.091e-05,0.0,0 STARLINK-4170,1 53140U 22083J   23110.32040016  .00007091  00000-0  46337-3 0  9994,2 53140  53.2167 227.3681 0001108  86.0790 274.0328 15.08821812 42040,6917.936,95.439,540.567,539.034,0.0
53140.0,STARLINK-4170,PAYLOAD,2023-04-20 12:27:32,15.08829593,0.0001259,53.2167,226.4761,79.3022,280.8112,0.0013432,0.00021148,0.0,0 STARLINK-4170,1 53140U 22083J   23110.51912334  .00021148  00000-0  13432-2 0  9994,2 53140  53.2167 226.4761 0001259  79.3022 280.8112 15.08829593 42702,6917.912,95.438,540.648,538.906,0.0
53140.0,STARLINK-4170,PAYLOAD,2023-04-20 14:02:55,15.08833133,0.0001258,53.2166,226.1787,77.1006,283.0126,0.0017335,0.00027403,0.0,0 STARLINK-4170,1 53140U 22083J   23110.58536403  .00027403  00000-0  17335-2 0  9996,2 53140  53.2166 226.1787 0001258  77.1006 283.0126 15.08833133 42089,6917.901,95.438,540.637,538.896,0.0
53140.0,STARLINK-4170,PAYLOAD,2023-04-21 01:10:37,15.08838277,0.0001535,53.2162,224.0996,63.3954,296.7195,0.0012094,0.00019011,0.0,0 STARLINK-4170,1 53140U 22083J   23111.04904903  .00019011  00000-0  12094-2 0  9995,2 53140  53.2162 224.0996 0001535  63.3954 296.7195 15.08838277 42789,6917.886,95.438,540.813,538.689,0.0
53140.0,STARLINK-4170,PAYLOAD,2023-04-21 13:53:43,15.088397,0.0001532,53.2165,221.7199,72.3231,287.7928,0.00067505,0.00010472,0.0,0 STARLINK-4170,1 53140U 22083J   23111.57897077  .00010472  00000-0  67505-3 0  9996,2 53140  53.2165 221.7199 0001532  72.3231 287.7928 15.08839700 42232,6917.881,95.438,540.806,538.686,0.0
53140.0,STARLINK-4170,PAYLOAD,2023-04-22 07:22:57,15.08847719,0.0001362,53.2164,218.4479,85.5607,274.5541,0.00052749,8.119e-05,0.0,0 STARLINK-4170,1 53140U 22083J   23112.30760968  .00008119  00000-0  52749-3 0  9995,2 53140  53.2164 218.4479 0001362  85.5607 274.5541 15.08847719 42974,6917.857,95.437,540.664,538.78,0.0
53140.0,STARLINK-4170,PAYLOAD,2023-04-22 12:09:06,15.08850761,0.0001342,53.2165,217.5559,85.8302,274.2843,0.00049343,7.576e-05,0.0,0 STARLINK-4170,1 53140U 22083J   23112.50632788  .00007576  00000-0  49343-3 0  9997,2 53140  53.2165 217.5559 0001342  85.8302 274.2843 15.08850761 42374,6917.847,95.437,540.641,538.784,0.0
53140.0,STARLINK-4170,PAYLOAD,2023-04-23 07:13:44,15.08841071,0.0001159,53.2161,213.9874,95.4255,264.6869,8.6453e-05,1.088e-05,0.0,0 STARLINK-4170,1 53140U 22083J   23113.30120928  .00001088  00000-0  86453-4 0  9990,2 53140  53.2161 213.9874 0001159  95.4255 264.6869 15.08841071 43129,6917.877,95.437,540.544,538.94,0.0
53140.0,STARLINK-4170,PAYLOAD,2023-04-23 10:24:30,15.08842897,0.000148,53.2166,213.3925,109.017,251.0982,0.00017229,2.455e-05,0.0,0 STARLINK-4170,1 53140U 22083J   23113.43368877  .00002455  00000-0  17229-3 0  9994,2 53140  53.2166 213.3925 0001480 109.0170 251.0982 15.08842897 42515,6917.872,95.437,540.76,538.713,0.0
53140.0,STARLINK-4170,PAYLOAD,2023-04-24 07:04:31,15.08874852,0.0001345,53.2173,209.5284,98.9318,261.1827,0.0012932,0.00020373,0.0,0 STARLINK-4170,1 53140U 22083J   23114.29480394  .00020373  00000-0  12932-2 0  9992,2 53140  53.2173 209.5284 0001345  98.9318 261.1827 15.08874852 43278,6917.774,95.435,540.569,538.708,0.0
53140.0,STARLINK-4170,PAYLOAD,2023-04-24 22:58:21,15.0887211,6.44e-05,53.2172,206.5545,38.1632,321.9405,0.00074586,0.00011613,0.0,0 STARLINK-4170,1 53140U 22083J   23114.95719205  .00011613  00000-0  74586-3 0  9992,2 53140  53.2172 206.5545 0000644  38.1632 321.9405 15.08872110 43373,6917.782,95.436,540.093,539.202,0.0
53140.0,STARLINK-4170,PAYLOAD,2023-04-25 10:06:04,15.08807356,0.0001226,53.2164,204.4731,68.5552,291.5571,-0.00096346,-0.00015575,0.0,0 STARLINK-4170,1 53140U 22083J   23115.42088872 -.00015575  00000-0 -96346-3 0  9995,2 53140  53.2164 204.4731 0001226  68.5552 291.5571 15.08807356 43447,6917.98,95.44,540.693,538.997,0.0
53140.0,STARLINK-4170,PAYLOAD,2023-04-26 11:32:17,15.08814647,0.0001665,53.217,199.7156,56.9601,303.1551,0.00065198,0.00010096,0.0,0 STARLINK-4170,1 53140U 22083J   23116.48075622  .00010096  00000-0  65198-3 0  9993,2 53140  53.2170 199.7156 0001665  56.9601 303.1551 15.08814647 42970,6917.958,95.439,540.975,538.671,0.0
53140.0,STARLINK-4170,PAYLOAD,2023-04-26 22:39:59,15.08834347,0.0001643,53.2162,197.6324,52.6288,307.4854,0.00086915,0.00013569,0.0,0 STARLINK-4170,1 53140U 22083J   23116.94443793  .00013569  00000-0  86915-3 0  9990,2 53140  53.2162 197.6324 0001643  52.6288 307.4854 15.08834347 43675,6917.898,95.438,540.899,538.626,0.0
53140.0,STARLINK-4170,PAYLOAD,2023-04-27 11:23:03,15.08868587,0.0001575,53.2152,195.2537,47.9369,312.1757,0.0013834,0.00021815,0.0,0 STARLINK-4170,1 53140U 22083J   23117.47435028  .00021815  00000-0  13834-2 0  9993,2 53140  53.2152 195.2537 0001575  47.9369 312.1757 15.08868587 43752,6917.793,95.436,540.748,538.568,0.0
53140.0,STARLINK-4170,PAYLOAD,2023-04-28 11:13:50,15.08862361,0.0001579,53.2152,190.7951,53.1741,306.9396,0.00053357,8.219e-05,0.0,0 STARLINK-4170,1 53140U 22083J   23118.46794085  .00008219  00000-0  53357-3 0  9992,2 53140  53.2152 190.7951 0001579  53.1741 306.9396 15.08862361 43900,6917.812,95.436,540.769,538.585,0.0
53140.0,STARLINK-4170,PAYLOAD,2023-04-29 11:04:36,15.08850481,0.0001577,53.2158,186.3328,55.0135,305.1005,6.4526e-05,7.39e-06,0.0,0 STARLINK-4170,1 53140U 22083J   23119.46153664  .00000739  00000-0  64526-4 0  9995,2 53140  53.2158 186.3328 0001577  55.0135 305.1005 15.08850481 44056,6917.848,95.437,540.804,538.622,0.0
53140.0,STARLINK-4170,PAYLOAD,2023-04-30 10:55:23,15.08844769,0.0001437,53.2164,181.8698,74.7357,285.3793,-7.825e-06,-4.13e-06,0.0,0 STARLINK-4170,1 53140U 22083J   23120.45513404 -.00000413  00000-0 -78250-5 0  9999,2 53140  53.2164 181.8698 0001437  74.7357 285.3793 15.08844769 44204,6917.866,95.437,540.725,538.737,0.0
53140.0,STARLINK-4170,PAYLOAD,2023-05-01 12:21:34,15.08839318,0.0001468,53.2166,177.1133,83.603,276.513,-8.438e-06,-4.22e-06,0.0,0 STARLINK-4170,1 53140U 22083J   23121.51497760 -.00000422  00000-0 -84380-5 0  9994,2 53140  53.2166 177.1133 0001468  83.6030 276.5130 15.08839318 44367,6917.882,95.438,540.763,538.732,0.0
53140.0,STARLINK-4170,PAYLOAD,2023-05-02 12:12:20,15.08845959,0.0001447,53.2159,172.6551,64.043,296.0711,0.00015083,2.114e-05,0.0,0 STARLINK-4170,1 53140U 22083J   23122.50857613  .00002114  00000-0  15083-3 0  9991,2 53140  53.2159 172.6551 0001447  64.0430 296.0711 15.08845959 43883,6917.862,95.437,540.728,538.726,0.0
53140.0,STARLINK-4170,PAYLOAD,2023-05-03 02:30:50,15.08826833,0.0001475,53.2166,169.9807,68.3848,291.7301,0.00045483,6.955e-05,0.0,0 STARLINK-4170,1 53140U 22083J   23123.10474851  .00006955  00000-0  45483-3 0  9991,2 53140  53.2166 169.9807 0001475  68.3848 291.7301 15.08826833 44603,6917.921,95.438,540.806,538.765,0.0
53140.0,STARLINK-4170,PAYLOAD,2023-05-03 12:03:09,15.08831093,0.0001444,53.2167,168.1952,66.5131,293.6012,2.3912e-05,9.3e-07,0.0,0 STARLINK-4170,1 53140U 22083J   23123.50219024  .00000093  00000-0  23912-4 0  9995,2 53140  53.2167 168.1952 0001444  66.5131 293.6012 15.08831093 44038,6917.908,95.438,540.772,538.774,0.0
53140.0,STARLINK-4170,PAYLOAD,2023-05-04 11:53:55,15.0884513,0.0001405,53.2166,163.7345,68.7067,291.4075,5.308e-05,5.57e-06,0.0,0 STARLINK-4170,1 53140U 22083J   23124.49578196  .00000557  00000-0  53080-4 0  9996,2 53140  53.2166 163.7345 0001405  68.7067 291.4075 15.08845130 44811,6917.865,95.437,540.702,538.758,0.0
53140.0,STARLINK-4170,PAYLOAD,2023-05-04 19:50:51,15.08842655,0.0001346,53.2168,162.2475,71.2542,288.8596,6.8771e-05,8.07e-06,0.0,0 STARLINK-4170,1 53140U 22083J   23124.82698250  .00000807  00000-0  68771-4 0  9998,2 53140  53.2168 162.2475 0001346  71.2542 288.8596 15.08842655 44235,6917.872,95.437,540.668,538.806,0.0
53140.0,STARLINK-4170,PAYLOAD,2023-05-05 19:41:38,15.08839922,0.0001381,53.2164,157.7863,73.2224,286.8919,0.00012878,1.762e-05,0.0,0 STARLINK-4170,1 53140U 22083J   23125.82058397  .00001762  00000-0  12878-3 0  9998,2 53140  53.2164 157.7863 0001381  73.2224 286.8919 15.08839922 45016,6917.881,95.438,540.701,538.79,0.0
53140.0,STARLINK-4170,PAYLOAD,2023-05-06 06:49:20,15.08844396,0.0001386,53.216,155.7046,76.6427,283.472,6.648e-05,7.7e-06,0.0,0 STARLINK-4170,1 53140U 22083J   23126.28426356  .00000770  00000-0  66480-4 0  9990,2 53140  53.2160 155.7046 0001386  76.6427 283.4720 15.08844396 44451,6917.867,95.437,540.691,538.773,0.0
53140.0,STARLINK-4170,PAYLOAD,2023-05-07 01:53:57,15.08845383,0.0001416,53.2152,152.1358,78.0949,282.0202,5.1661e-05,5.34e-06,0.0,0 STARLINK-4170,1 53140U 22083J   23127.07914125  .00000534  00000-0  51661-4 0  9997,2 53140  53.2152 152.1358 0001416  78.0949 282.0202 15.08845383 45209,6917.864,95.437,540.709,538.749,0.0
53140.0,STARLINK-4170,PAYLOAD,2023-05-07 08:15:30,15.08844768,0.0001316,53.2157,150.9461,81.27,278.8441,2.8355e-05,1.63e-06,0.0,0 STARLINK-4170,1 53140U 22083J   23127.34410122  .00000163  00000-0  28355-4 0  9997,2 53140  53.2157 150.9461 0001316  81.2700 278.8441 15.08844768 44613,6917.866,95.437,540.641,538.82,0.0
